{"fetched_at": "2026-03-15T06:18:37.907638+00:00", "count": 376, "satellites": [ {"name": "E-KAGAKU-1", "tle1": "1 65943U 98067XQ  26073.89193558  .00284438  00000+0  12825-2 0  9991", "tle2": "2 65943  51.6229  30.3476 0005511 110.0457 250.1139 15.82674081 24321", "norad_id": 65943, "group": "stations", "highlight": false}, {"name": "HRC MONOBLOCK CAMERA", "tle1": "1 66052U 98067XR  26073.94480532  .00062336  00000+0  67820-3 0  9997", "tle2": "2 66052  51.6276  38.9988 0003794 115.9120 244.2265 15.62833336 23218", "norad_id": 66052, "group": "stations", "highlight": false}, {"name": "HTV-X1", "tle1": "1 66174U 25241A   26073.34423291  .00012784  00000+0  55060-3 0  9994", "tle2": "2 66174  51.6357  50.7100 0005739 187.3646 172.7248 15.22909432 21668", "norad_id": 66174, "group": "stations", "highlight": false}, {"name": "SZ-21 MODULE", "tle1": "1 66515U 25246C   26073.59336335  .00048778  00000+0  41125-3 0  9996", "tle2": "2 66515  41.4735 173.1648 0000910 309.7124  50.3637 15.68965402 18846", "norad_id": 66515, "group": "stations", "highlight": false}, {"name": "SHENZHOU-22", "tle1": "1 66645U 25272A   26073.00269975  .00029757  00000+0  34787-3 0  9992", "tle2": "2 66645  41.4663 181.9138 0006689 299.3968  60.6202 15.60904690267527", "norad_id": 66645, "group": "stations", "highlight": false}, {"name": "SOYUZ-MS 28", "tle1": "1 66664U 25275A   26073.80519411  .00010373  00000+0  20105-3 0  9990", "tle2": "2 66664  51.6329  47.0659 0006371 190.9724 169.1126 15.48281436554525", "norad_id": 66664, "group": "stations", "highlight": false}, {"name": "DUPLEX", "tle1": "1 66906U 98067XS  26073.91541015  .00036173  00000+0  50354-3 0  9990", "tle2": "2 66906  51.6290  43.3045 0002739 136.2509 223.8700 15.56591153 15940", "norad_id": 66906, "group": "stations", "highlight": false}, {"name": "ISS OBJECT XT", "tle1": "1 66907U 98067XT  26073.92906219  .00207522  00000+0  15762-2 0  9994", "tle2": "2 66907  51.6247  38.8754 0004692 114.9023 245.2462 15.71125912 16007", "norad_id": 66907, "group": "stations", "highlight": true}, {"name": "ISS OBJECT XU", "tle1": "1 66908U 98067XU  26073.92682114  .00211029  00000+0  15925-2 0  9998", "tle2": "2 66908  51.6241  38.8570 0004960 116.2643 243.8865 15.71267428 16009", "norad_id": 66908, "group": "stations", "highlight": true}, {"name": "SILVERSAT", "tle1": "1 66909U 98067XV  26073.91767339  .00271074  00000+0  17572-2 0  9997", "tle2": "2 66909  51.6238  38.0433 0005488 116.1770 243.9794 15.74646636 16010", "norad_id": 66909, "group": "stations", "highlight": false}, {"name": "ISS OBJECT XW", "tle1": "1 66910U 98067XW  26073.92640604  .00181475  00000+0  14323-2 0  9991", "tle2": "2 66910  51.6237  38.8515 0005326 118.2073 241.9463 15.70288950 16007", "norad_id": 66910, "group": "stations", "highlight": true}, {"name": "ISS OBJECT XX", "tle1": "1 66911U 98067XX  26073.90318958  .00367666  00000+0  19859-2 0  9991", "tle2": "2 66911  51.6205  37.1744 0006825 118.8306 241.3381 15.78504066 16010", "norad_id": 66911, "group": "stations", "highlight": true}]}